[{"OBJECT_NAME":"TIANMU-1 17","OBJECT_ID":"2024-004C","EPOCH":"2026-03-09T22:46:08.436864","MEAN_MOTION":15.2591023,"ECCENTRICITY":0.00044458,"INCLINATION":97.4649,"RA_OF_ASC_NODE":254.963,"ARG_OF_PERICENTER":359.1343,"MEAN_ANOMALY":0.9887,"EPHEMERIS_TYPE":0,"CLASSIFICATION_TYPE":"U","NORAD_CAT_ID":58702,"ELEMENT_SET_NO":999,"REV_AT_EPOCH":12063,"BSTAR":0.00031387278,"MEAN_MOTION_DOT":7.979e-5,"MEAN_MOTION_DDOT":0},{"OBJECT_NAME":"UNKNOWN","OBJECT_ID":"","EPOCH":"2026-03-09T03:40:49.808928","MEAN_MOTION":15.17985561,"ECCENTRICITY":0.0023398,"INCLINATION":66.7883,"RA_OF_ASC_NODE":96.9262,"ARG_OF_PERICENTER":16.4363,"MEAN_ANOMALY":343.7533,"EPHEMERIS_TYPE":0,"CLASSIFICATION_TYPE":"U","NORAD_CAT_ID":81449,"ELEMENT_SET_NO":999,"REV_AT_EPOCH":64658,"BSTAR":0.0066641,"MEAN_MOTION_DOT":0.00139351,"MEAN_MOTION_DDOT":0}]
